{
"type": "FeatureCollection",
"features": [
{ "type": "Feature", "properties": { "行政区域": "22210", "鉄道区分": "普通鉄道", "事業者種別": "民営鉄道", "路線名": "岳南線", "運営会社": "岳南電車" }, "geometry": { "type": "LineString", "coordinates": [ [ 138.701590000, 35.144490000 ], [ 138.700880000, 35.144390000 ], [ 138.699940000, 35.144540000 ], [ 138.697350000, 35.144990000 ], [ 138.695700000, 35.145240000 ], [ 138.695070000, 35.145340000 ], [ 138.692100000, 35.145940000 ], [ 138.691780000, 35.146080000 ], [ 138.691390000, 35.146360000 ], [ 138.691160000, 35.146740000 ], [ 138.691010000, 35.147290000 ], [ 138.690990000, 35.147350000 ], [ 138.691040000, 35.147820000 ], [ 138.691250000, 35.148730000 ], [ 138.691490000, 35.149850000 ], [ 138.692070000, 35.152660000 ], [ 138.692510000, 35.153610000 ], [ 138.692550000, 35.154100000 ], [ 138.692540000, 35.154500000 ], [ 138.692430000, 35.154870000 ], [ 138.692130000, 35.155290000 ], [ 138.691590000, 35.155950000 ], [ 138.690800000, 35.156910000 ], [ 138.690230000, 35.157550000 ], [ 138.689850000, 35.157970000 ], [ 138.689330000, 35.158540000 ], [ 138.689150000, 35.158880000 ], [ 138.689060000, 35.159250000 ], [ 138.689050000, 35.159490000 ], [ 138.689060000, 35.159780000 ], [ 138.689130000, 35.160080000 ], [ 138.689460000, 35.160550000 ], [ 138.690000000, 35.160990000 ], [ 138.690390000, 35.161340000 ], [ 138.690500000, 35.161430000 ], [ 138.690580000, 35.161500000 ], [ 138.690640000, 35.161540000 ], [ 138.691130000, 35.161820000 ], [ 138.691690000, 35.161950000 ], [ 138.692390000, 35.162010000 ], [ 138.693230000, 35.161930000 ], [ 138.693950000, 35.161810000 ], [ 138.695100000, 35.161680000 ], [ 138.695990000, 35.161460000 ], [ 138.697170000, 35.161290000 ], [ 138.697720000, 35.161260000 ], [ 138.698340000, 35.161320000 ], [ 138.698920000, 35.161510000 ], [ 138.699400000, 35.161890000 ], [ 138.700630000, 35.163300000 ], [ 138.700780000, 35.163530000 ], [ 138.700920000, 35.163780000 ], [ 138.701340000, 35.164490000 ], [ 138.701780000, 35.165080000 ], [ 138.702260000, 35.165510000 ], [ 138.702700000, 35.165830000 ], [ 138.703270000, 35.166020000 ], [ 138.703960000, 35.166120000 ], [ 138.704200000, 35.166130000 ], [ 138.705000000, 35.166050000 ], [ 138.707300000, 35.165530000 ], [ 138.708560000, 35.165150000 ], [ 138.709040000, 35.164840000 ], [ 138.709610000, 35.164360000 ], [ 138.710050000, 35.163610000 ], [ 138.710650000, 35.162540000 ], [ 138.710920000, 35.162270000 ], [ 138.711190000, 35.162070000 ], [ 138.711670000, 35.161870000 ], [ 138.712630000, 35.161610000 ], [ 138.713190000, 35.161510000 ], [ 138.714060000, 35.161450000 ], [ 138.716250000, 35.161340000 ], [ 138.719160000, 35.161220000 ], [ 138.722980000, 35.160920000 ], [ 138.723800000, 35.160980000 ], [ 138.724020000, 35.161000000 ], [ 138.724790000, 35.161110000 ], [ 138.726930000, 35.161620000 ], [ 138.727570000, 35.161740000 ], [ 138.727730000, 35.161750000 ], [ 138.729030000, 35.161480000 ], [ 138.729400000, 35.161400000 ], [ 138.730980000, 35.161090000 ], [ 138.733530000, 35.160550000 ], [ 138.734310000, 35.160390000 ], [ 138.736980000, 35.159930000 ], [ 138.737870000, 35.159840000 ], [ 138.738350000, 35.159840000 ], [ 138.738660000, 35.159880000 ], [ 138.739060000, 35.159950000 ], [ 138.739610000, 35.160140000 ], [ 138.740580000, 35.160520000 ], [ 138.740810000, 35.160600000 ], [ 138.741800000, 35.160960000 ], [ 138.742130000, 35.161000000 ], [ 138.742640000, 35.161030000 ], [ 138.743400000, 35.160930000 ], [ 138.743830000, 35.160860000 ], [ 138.744230000, 35.160670000 ], [ 138.744770000, 35.160270000 ], [ 138.746190000, 35.158670000 ], [ 138.746870000, 35.157830000 ], [ 138.747090000, 35.157550000 ], [ 138.747380000, 35.157170000 ], [ 138.747610000, 35.156940000 ], [ 138.747840000, 35.156760000 ], [ 138.748150000, 35.156580000 ], [ 138.748320000, 35.156490000 ], [ 138.748840000, 35.156270000 ], [ 138.749360000, 35.156080000 ], [ 138.749930000, 35.155880000 ], [ 138.750380000, 35.155720000 ], [ 138.751360000, 35.155390000 ], [ 138.752300000, 35.155100000 ] ] } }
,
{ "type": "Feature", "properties": { "行政区域": "22210", "鉄道区分": "普通鉄道JR", "事業者種別": "JR在来線", "路線名": "身延線", "運営会社": "東海旅客鉄道" }, "geometry": { "type": "LineString", "coordinates": [ [ 138.650360000, 35.151340000 ], [ 138.649860000, 35.151400000 ], [ 138.649370000, 35.151440000 ], [ 138.647320000, 35.151540000 ], [ 138.646040000, 35.151660000 ], [ 138.644590000, 35.151720000 ], [ 138.643050000, 35.151830000 ] ] } }
,
{ "type": "Feature", "properties": { "行政区域": "22210", "鉄道区分": "普通鉄道JR", "事業者種別": "JR在来線", "路線名": "身延線", "運営会社": "東海旅客鉄道" }, "geometry": { "type": "LineString", "coordinates": [ [ 138.643050000, 35.151830000 ], [ 138.642280000, 35.152120000 ], [ 138.640910000, 35.152840000 ], [ 138.640350000, 35.153220000 ], [ 138.639970000, 35.153610000 ], [ 138.639560000, 35.154200000 ], [ 138.639330000, 35.154620000 ], [ 138.639200000, 35.154890000 ], [ 138.639060000, 35.155340000 ], [ 138.639020000, 35.155620000 ], [ 138.638970000, 35.155900000 ], [ 138.638950000, 35.156250000 ], [ 138.638990000, 35.156880000 ], [ 138.638990000, 35.156900000 ], [ 138.639010000, 35.156970000 ], [ 138.639210000, 35.157650000 ], [ 138.639250000, 35.157740000 ], [ 138.639440000, 35.158160000 ], [ 138.639610000, 35.158460000 ], [ 138.640560000, 35.159970000 ], [ 138.640670000, 35.160160000 ], [ 138.641240000, 35.161060000 ], [ 138.641370000, 35.161230000 ], [ 138.642130000, 35.162430000 ], [ 138.643170000, 35.164050000 ], [ 138.643580000, 35.164680000 ], [ 138.644350000, 35.165840000 ], [ 138.644950000, 35.166780000 ], [ 138.645450000, 35.167520000 ], [ 138.646130000, 35.168610000 ], [ 138.646180000, 35.168700000 ], [ 138.646770000, 35.169650000 ], [ 138.647000000, 35.169940000 ], [ 138.647090000, 35.170060000 ], [ 138.647170000, 35.170140000 ], [ 138.647350000, 35.170320000 ], [ 138.647680000, 35.170640000 ], [ 138.648030000, 35.170960000 ], [ 138.648660000, 35.171410000 ], [ 138.650530000, 35.172600000 ], [ 138.651470000, 35.173190000 ], [ 138.653780000, 35.174630000 ], [ 138.654530000, 35.175110000 ], [ 138.654710000, 35.175260000 ], [ 138.654880000, 35.175450000 ], [ 138.655160000, 35.175860000 ], [ 138.655280000, 35.176120000 ], [ 138.655340000, 35.176310000 ], [ 138.655370000, 35.176470000 ], [ 138.655380000, 35.176930000 ], [ 138.655320000, 35.177390000 ], [ 138.655290000, 35.177510000 ], [ 138.655230000, 35.177790000 ], [ 138.654820000, 35.179410000 ], [ 138.654700000, 35.179820000 ], [ 138.654410000, 35.180370000 ], [ 138.652800000, 35.182670000 ], [ 138.652310000, 35.183370000 ], [ 138.651470000, 35.184530000 ], [ 138.651100000, 35.185060000 ], [ 138.650700000, 35.185620000 ], [ 138.650450000, 35.185990000 ], [ 138.650280000, 35.186220000 ], [ 138.650000000, 35.186610000 ], [ 138.649820000, 35.186840000 ], [ 138.649700000, 35.186960000 ], [ 138.649540000, 35.187090000 ], [ 138.649260000, 35.187270000 ], [ 138.649000000, 35.187440000 ], [ 138.648470000, 35.187770000 ], [ 138.647930000, 35.188100000 ], [ 138.647120000, 35.188600000 ], [ 138.646560000, 35.188950000 ], [ 138.646110000, 35.189220000 ], [ 138.645760000, 35.189510000 ], [ 138.645660000, 35.189610000 ], [ 138.645540000, 35.189730000 ], [ 138.645260000, 35.190060000 ], [ 138.645140000, 35.190280000 ], [ 138.645070000, 35.190430000 ], [ 138.644970000, 35.190700000 ], [ 138.644740000, 35.191660000 ], [ 138.644550000, 35.192330000 ], [ 138.644460000, 35.192560000 ], [ 138.644380000, 35.192690000 ], [ 138.644320000, 35.192780000 ], [ 138.644250000, 35.192860000 ], [ 138.643260000, 35.193570000 ], [ 138.642980000, 35.193790000 ], [ 138.642850000, 35.193900000 ], [ 138.642740000, 35.194020000 ], [ 138.642640000, 35.194160000 ], [ 138.642550000, 35.194340000 ], [ 138.642470000, 35.194520000 ], [ 138.642410000, 35.194740000 ], [ 138.642350000, 35.195020000 ], [ 138.642240000, 35.195610000 ], [ 138.642040000, 35.196880000 ], [ 138.641930000, 35.197780000 ], [ 138.641900000, 35.198010000 ], [ 138.641820000, 35.198490000 ], [ 138.641760000, 35.198770000 ], [ 138.641710000, 35.198870000 ], [ 138.641610000, 35.199020000 ], [ 138.641300000, 35.199400000 ], [ 138.639940000, 35.201190000 ], [ 138.639370000, 35.201950000 ], [ 138.638940000, 35.202510000 ], [ 138.638350000, 35.203280000 ], [ 138.637930000, 35.203840000 ], [ 138.637850000, 35.203920000 ], [ 138.637610000, 35.204110000 ], [ 138.637340000, 35.204280000 ], [ 138.637040000, 35.204460000 ], [ 138.636860000, 35.204550000 ], [ 138.636560000, 35.204690000 ], [ 138.635910000, 35.205070000 ], [ 138.635310000, 35.205470000 ], [ 138.634810000, 35.205850000 ], [ 138.634720000, 35.205950000 ], [ 138.634180000, 35.206700000 ], [ 138.634040000, 35.206910000 ], [ 138.634037509, 35.206913737 ] ] } }
,
{ "type": "Feature", "properties": { "行政区域": "22210", "鉄道区分": "普通鉄道JR", "事業者種別": "JR在来線", "路線名": "身延線", "運営会社": "東海旅客鉄道" }, "geometry": { "type": "LineString", "coordinates": [ [ 138.653820000, 35.151160000 ], [ 138.652940000, 35.151220000 ], [ 138.651250000, 35.151310000 ], [ 138.650870000, 35.151320000 ], [ 138.650360000, 35.151340000 ] ] } }
,
{ "type": "Feature", "properties": { "行政区域": "22210", "鉄道区分": "普通鉄道JR", "事業者種別": "JR在来線", "路線名": "東海道線", "運営会社": "東海旅客鉄道" }, "geometry": { "type": "LineString", "coordinates": [ [ 138.653820000, 35.151160000 ], [ 138.652940000, 35.151220000 ], [ 138.651250000, 35.151310000 ], [ 138.650870000, 35.151320000 ], [ 138.650360000, 35.151340000 ] ] } }
,
{ "type": "Feature", "properties": { "行政区域": "22210", "鉄道区分": "普通鉄道JR", "事業者種別": "JR在来線", "路線名": "東海道線", "運営会社": "東海旅客鉄道" }, "geometry": { "type": "LineString", "coordinates": [ [ 138.650360000, 35.151340000 ], [ 138.649860000, 35.151400000 ], [ 138.649370000, 35.151440000 ], [ 138.647320000, 35.151540000 ], [ 138.646040000, 35.151660000 ], [ 138.644590000, 35.151720000 ], [ 138.643050000, 35.151830000 ] ] } }
,
{ "type": "Feature", "properties": { "行政区域": "22210", "鉄道区分": "普通鉄道JR", "事業者種別": "JR在来線", "路線名": "東海道線", "運営会社": "東海旅客鉄道" }, "geometry": { "type": "LineString", "coordinates": [ [ 138.643050000, 35.151830000 ], [ 138.640130000, 35.152000000 ], [ 138.639560000, 35.152030000 ], [ 138.636620000, 35.152030000 ], [ 138.636270000, 35.152020000 ], [ 138.634900000, 35.151850000 ], [ 138.633040000, 35.151420000 ], [ 138.631790000, 35.151090000 ], [ 138.631250000, 35.150890000 ], [ 138.629620000, 35.150280000 ], [ 138.629450000, 35.150210000 ], [ 138.628020000, 35.149630000 ], [ 138.626690000, 35.149100000 ], [ 138.626580000, 35.149060000 ], [ 138.625640000, 35.148680000 ], [ 138.625160000, 35.148490000 ], [ 138.623370000, 35.147750000 ], [ 138.622990000, 35.147580000 ], [ 138.621890000, 35.147050000 ], [ 138.621140000, 35.146430000 ], [ 138.620830000, 35.146170000 ], [ 138.620440000, 35.145830000 ], [ 138.620200000, 35.145580000 ], [ 138.620000000, 35.145320000 ], [ 138.619750000, 35.144920000 ], [ 138.619650000, 35.144720000 ], [ 138.619530000, 35.144440000 ], [ 138.619400000, 35.143960000 ], [ 138.619210000, 35.143310000 ], [ 138.618970000, 35.142360000 ], [ 138.618450000, 35.139900000 ], [ 138.618200000, 35.138800000 ], [ 138.617920000, 35.137770000 ], [ 138.617750000, 35.137090000 ], [ 138.617710000, 35.136910000 ], [ 138.617680000, 35.136700000 ], [ 138.617640000, 35.136010000 ], [ 138.617660000, 35.135570000 ], [ 138.617680000, 35.135350000 ], [ 138.617720000, 35.135150000 ], [ 138.617960000, 35.134450000 ], [ 138.618420000, 35.133160000 ], [ 138.618600000, 35.132630000 ], [ 138.618839123, 35.131852849 ] ] } }
,
{ "type": "Feature", "properties": { "行政区域": "22210", "鉄道区分": "普通鉄道JR", "事業者種別": "JRの新幹線", "路線名": "東海道新幹線", "運営会社": "東海旅客鉄道" }, "geometry": { "type": "LineString", "coordinates": [ [ 138.771838437, 35.152810441 ], [ 138.770600000, 35.153160000 ], [ 138.769080000, 35.153620000 ], [ 138.767910000, 35.153950000 ], [ 138.767700000, 35.154010000 ], [ 138.766720000, 35.154280000 ], [ 138.765390000, 35.154660000 ], [ 138.764220000, 35.154990000 ], [ 138.763260000, 35.155200000 ], [ 138.761700000, 35.155430000 ], [ 138.760510000, 35.155600000 ], [ 138.759270000, 35.155760000 ], [ 138.757950000, 35.155880000 ], [ 138.756930000, 35.155970000 ], [ 138.756890000, 35.155970000 ], [ 138.755850000, 35.156060000 ], [ 138.754250000, 35.156110000 ], [ 138.752960000, 35.156110000 ], [ 138.752200000, 35.156080000 ], [ 138.751760000, 35.156020000 ], [ 138.750240000, 35.155900000 ], [ 138.749930000, 35.155880000 ], [ 138.749260000, 35.155830000 ], [ 138.748120000, 35.155740000 ], [ 138.746870000, 35.155640000 ], [ 138.745700000, 35.155490000 ], [ 138.745510000, 35.155460000 ], [ 138.745120000, 35.155410000 ], [ 138.744700000, 35.155350000 ], [ 138.744370000, 35.155300000 ], [ 138.741490000, 35.154900000 ], [ 138.741200000, 35.154880000 ], [ 138.740210000, 35.154750000 ], [ 138.739990000, 35.154730000 ], [ 138.738380000, 35.154510000 ], [ 138.738130000, 35.154480000 ], [ 138.736520000, 35.154270000 ], [ 138.736180000, 35.154230000 ], [ 138.734350000, 35.153990000 ], [ 138.734030000, 35.153960000 ], [ 138.731740000, 35.153680000 ], [ 138.731530000, 35.153660000 ], [ 138.731370000, 35.153640000 ], [ 138.729190000, 35.153370000 ], [ 138.728870000, 35.153340000 ], [ 138.727980000, 35.153220000 ], [ 138.727520000, 35.153160000 ], [ 138.727170000, 35.153120000 ], [ 138.726720000, 35.153050000 ], [ 138.726420000, 35.153030000 ], [ 138.723430000, 35.152650000 ], [ 138.723320000, 35.152640000 ], [ 138.723200000, 35.152630000 ], [ 138.718840000, 35.152120000 ], [ 138.718550000, 35.152090000 ], [ 138.716150000, 35.151810000 ], [ 138.715920000, 35.151790000 ], [ 138.715550000, 35.151760000 ], [ 138.715210000, 35.151730000 ], [ 138.715040000, 35.151720000 ], [ 138.714860000, 35.151710000 ], [ 138.714730000, 35.151690000 ], [ 138.711910000, 35.151460000 ], [ 138.709000000, 35.151210000 ], [ 138.705830000, 35.150940000 ], [ 138.703700000, 35.150790000 ], [ 138.701660000, 35.150650000 ], [ 138.698020000, 35.150260000 ], [ 138.696460000, 35.150040000 ], [ 138.695770000, 35.149900000 ], [ 138.694670000, 35.149680000 ], [ 138.693300000, 35.149370000 ], [ 138.692820000, 35.149230000 ], [ 138.692510000, 35.149150000 ], [ 138.691260000, 35.148790000 ], [ 138.690370000, 35.148550000 ], [ 138.688410000, 35.147860000 ], [ 138.686040000, 35.147030000 ], [ 138.685710000, 35.146910000 ], [ 138.683720000, 35.146190000 ], [ 138.682570000, 35.145810000 ], [ 138.681940000, 35.145600000 ], [ 138.679310000, 35.144850000 ], [ 138.678010000, 35.144530000 ], [ 138.676110000, 35.144160000 ], [ 138.674630000, 35.143910000 ], [ 138.671870000, 35.143460000 ], [ 138.671480000, 35.143390000 ], [ 138.671210000, 35.143350000 ], [ 138.670910000, 35.143310000 ], [ 138.670390000, 35.143220000 ], [ 138.670040000, 35.143160000 ], [ 138.667310000, 35.142740000 ], [ 138.667050000, 35.142700000 ], [ 138.666920000, 35.142670000 ], [ 138.665550000, 35.142440000 ], [ 138.664760000, 35.142330000 ], [ 138.664490000, 35.142290000 ], [ 138.662550000, 35.142000000 ], [ 138.662090000, 35.141930000 ], [ 138.661810000, 35.141890000 ], [ 138.661540000, 35.141850000 ], [ 138.661280000, 35.141810000 ], [ 138.659770000, 35.141580000 ], [ 138.659470000, 35.141530000 ], [ 138.657760000, 35.141260000 ], [ 138.657510000, 35.141220000 ], [ 138.657020000, 35.141140000 ], [ 138.656690000, 35.141100000 ], [ 138.654640000, 35.140770000 ], [ 138.654350000, 35.140730000 ], [ 138.653280000, 35.140560000 ], [ 138.653060000, 35.140530000 ], [ 138.650200000, 35.140080000 ], [ 138.649970000, 35.140040000 ], [ 138.649740000, 35.140000000 ], [ 138.649390000, 35.139950000 ], [ 138.649160000, 35.139920000 ], [ 138.649010000, 35.139900000 ], [ 138.648870000, 35.139880000 ], [ 138.648660000, 35.139850000 ], [ 138.648430000, 35.139820000 ], [ 138.648240000, 35.139800000 ], [ 138.647070000, 35.139650000 ], [ 138.646830000, 35.139630000 ], [ 138.645740000, 35.139490000 ], [ 138.645360000, 35.139450000 ], [ 138.644370000, 35.139350000 ], [ 138.644120000, 35.139330000 ], [ 138.643060000, 35.139240000 ], [ 138.642800000, 35.139220000 ], [ 138.642730000, 35.139200000 ], [ 138.641850000, 35.139130000 ], [ 138.638890000, 35.138840000 ], [ 138.633840000, 35.138370000 ], [ 138.628380000, 35.137880000 ], [ 138.628330000, 35.137880000 ], [ 138.624070000, 35.137490000 ], [ 138.622210000, 35.137310000 ], [ 138.621890000, 35.137280000 ], [ 138.621660000, 35.137240000 ], [ 138.621020000, 35.137190000 ], [ 138.619740000, 35.137080000 ], [ 138.618500000, 35.136930000 ], [ 138.617990000, 35.136870000 ], [ 138.617640000, 35.136830000 ], [ 138.617290000, 35.136780000 ], [ 138.617050000, 35.136750000 ], [ 138.616490000, 35.136640000 ], [ 138.616040000, 35.136560000 ], [ 138.615490000, 35.136450000 ], [ 138.615060000, 35.136370000 ], [ 138.614450000, 35.136220000 ], [ 138.614120000, 35.136150000 ], [ 138.612860000, 35.135800000 ], [ 138.612330000, 35.135640000 ], [ 138.612070000, 35.135570000 ], [ 138.611860000, 35.135500000 ], [ 138.611620000, 35.135420000 ], [ 138.611090000, 35.135230000 ], [ 138.610720000, 35.135090000 ], [ 138.609840000, 35.134710000 ], [ 138.609000000, 35.134340000 ], [ 138.607980000, 35.133890000 ], [ 138.607680000, 35.133730000 ], [ 138.606710000, 35.133300000 ], [ 138.605640000, 35.132810000 ], [ 138.605250000, 35.132620000 ], [ 138.605244593, 35.132617297 ] ] } }
,
{ "type": "Feature", "properties": { "行政区域": "22210", "鉄道区分": "普通鉄道JR", "事業者種別": "JR在来線", "路線名": "東海道線", "運営会社": "東海旅客鉄道" }, "geometry": { "type": "LineString", "coordinates": [ [ 138.753889259, 35.134750131 ], [ 138.752650000, 35.134970000 ], [ 138.749560000, 35.135540000 ], [ 138.746870000, 35.136040000 ], [ 138.746120000, 35.136160000 ], [ 138.744850000, 35.136380000 ], [ 138.743080000, 35.136680000 ], [ 138.741870000, 35.136890000 ], [ 138.740200000, 35.137170000 ], [ 138.738820000, 35.137430000 ], [ 138.738310000, 35.137500000 ], [ 138.735050000, 35.138090000 ], [ 138.734600000, 35.138140000 ], [ 138.733230000, 35.138380000 ], [ 138.731060000, 35.138800000 ], [ 138.730470000, 35.138900000 ], [ 138.728090000, 35.139320000 ], [ 138.724990000, 35.139870000 ], [ 138.720560000, 35.140670000 ], [ 138.720000000, 35.140780000 ], [ 138.719640000, 35.140840000 ], [ 138.718700000, 35.141000000 ], [ 138.717000000, 35.141310000 ], [ 138.713040000, 35.142030000 ], [ 138.711650000, 35.142300000 ], [ 138.708830000, 35.142790000 ], [ 138.706180000, 35.143260000 ], [ 138.705190000, 35.143430000 ], [ 138.704070000, 35.143620000 ], [ 138.701210000, 35.144150000 ], [ 138.699510000, 35.144450000 ], [ 138.698090000, 35.144690000 ], [ 138.694740000, 35.145290000 ], [ 138.691110000, 35.145920000 ], [ 138.690710000, 35.146000000 ], [ 138.687940000, 35.146520000 ], [ 138.685860000, 35.146890000 ], [ 138.685420000, 35.146960000 ], [ 138.683030000, 35.147400000 ], [ 138.681060000, 35.147740000 ], [ 138.679890000, 35.147970000 ], [ 138.679280000, 35.148080000 ], [ 138.678750000, 35.148170000 ], [ 138.676420000, 35.148590000 ], [ 138.674990000, 35.148820000 ], [ 138.672970000, 35.149180000 ], [ 138.670270000, 35.149660000 ], [ 138.670110000, 35.149690000 ], [ 138.666640000, 35.150270000 ], [ 138.664900000, 35.150490000 ], [ 138.663520000, 35.150620000 ], [ 138.659310000, 35.150840000 ], [ 138.658820000, 35.150870000 ], [ 138.657890000, 35.150920000 ], [ 138.656600000, 35.151000000 ], [ 138.656290000, 35.151030000 ], [ 138.653820000, 35.151160000 ] ] } }
]
}
